STARLINK-2388           
1 47807U 21018W   26068.70635189  .00000794  00000+0  38947-4 0  9993
2 47807  53.1597 216.6328 0001071  96.2177 263.8945 15.30196777277084
TEVEL2-2                
1 63219U 25052K   26068.64848259  .00020339  00000+0  69428-3 0  9991
2 63219  97.3987 324.7700 0004693 105.7930 254.3828 15.30343745 54855
